{"type":"FeatureCollection","features":[{"type":"Feature","id":"6296327","geometry":{"type":"Point","coordinates":[-114.012939453125,51.129329681396484]},"properties":{"countryCode":"CA","marker-color":"#383E42","marker-size":"medium","marker-symbol":"warehouse","title":"YYC"}},{"type":"Feature","id":"4792325","geometry":{"type":"Point","coordinates":[-77.4490966796875,38.948768615722656]},"properties":{"countryCode":"US","marker-color":"#383E42","marker-size":"medium","marker-symbol":"warehouse","title":"IAD"}},{"type":"Feature","id":"6300524","geometry":{"type":"Point","coordinates":[-58.535831451416016,-34.82221984863281]},"properties":{"countryCode":"AR","marker-color":"#383E42","marker-size":"medium","marker-symbol":"warehouse","title":"EZE"}},{"type":"Feature","id":"6300605","geometry":{"type":"Point","coordinates":[-47.91862106323242,-15.871100425720215]},"properties":{"countryCode":"BR","marker-color":"#383E42","marker-size":"medium","marker-symbol":"warehouse","title":"BSB"}},{"type":"Feature","id":"6301878","geometry":{"type":"Point","coordinates":[106.65589904785156,-6.125569820404053]},"properties":{"countryCode":"ID","marker-color":"#383E42","marker-size":"medium","marker-symbol":"warehouse","title":"JKT"}},{"type":"Feature","id":"5308700","geometry":{"type":"Point","coordinates":[-111.9980697631836,33.435508728027344]},"properties":{"countryCode":"US","marker-color":"#383E42","marker-size":"medium","marker-symbol":"warehouse","title":"PHX"}},{"type":"Feature","id":"4393219","geometry":{"type":"Point","coordinates":[-94.7177505493164,39.29623031616211]},"properties":{"countryCode":"US","marker-color":"#383E42","marker-size":"medium","marker-symbol":"warehouse","title":"MCI"}},{"type":"Feature","id":"4887479","geometry":{"type":"Point","coordinates":[-87.90445709228516,41.979591369628906]},"properties":{"countryCode":"US","marker-color":"#383E42","marker-size":"medium","marker-symbol":"warehouse","title":"ORD"}},{"type":"Feature","id":"6300629","geometry":{"type":"Point","coordinates":[-46.48101043701172,-23.430570602416992]},"properties":{"countryCode":"BR","marker-color":"#383E42","marker-size":"medium","marker-symbol":"warehouse","title":"GRU"}},{"type":"Feature","id":"6301872","geometry":{"type":"Point","coordinates":[77.10308837890625,28.566499710083008]},"properties":{"countryCode":"IN","marker-color":"#383E42","marker-size":"medium","marker-symbol":"warehouse","title":"DEL"}},{"type":"Feature","id":"6300736","geometry":{"type":"Point","coordinates":[-74.1469497680664,4.701590061187744]},"properties":{"countryCode":"CO","marker-color":"#383E42","marker-size":"medium","marker-symbol":"warehouse","title":"BOG"}},{"type":"Feature","id":"993986","geometry":{"type":"Point","coordinates":[28.236059188842773,-26.133480072021484]},"properties":{"countryCode":"ZA","marker-color":"#383E42","marker-size":"medium","marker-symbol":"warehouse","title":"JNB"}},{"type":"Feature","id":"5419401","geometry":{"type":"Point","coordinates":[-104.67326354980469,39.858909606933594]},"properties":{"countryCode":"US","marker-color":"#383E42","marker-size":"medium","marker-symbol":"warehouse","title":"DEN"}},{"type":"Feature","id":"5809876","geometry":{"type":"Point","coordinates":[-122.30928802490234,47.44898986816406]},"properties":{"countryCode":"US","marker-color":"#383E42","marker-size":"medium","marker-symbol":"warehouse","title":"SEA"}},{"type":"Feature","id":"3174133","geometry":{"type":"Point","coordinates":[8.715080261230469,45.627540588378906]},"properties":{"countryCode":"IT","marker-color":"#383E42","marker-size":"medium","marker-symbol":"warehouse","title":"MXP"}},{"type":"Feature","id":"6220393","geometry":{"type":"Point","coordinates":[172.5322265625,-43.48936080932617]},"properties":{"countryCode":"NZ","marker-color":"#383E42","marker-size":"medium","marker-symbol":"warehouse","title":"CHC"}},{"type":"Feature","id":"6296338","geometry":{"type":"Point","coordinates":[-79.61286163330078,43.680660247802734]},"properties":{"countryCode":"CA","marker-color":"#383E42","marker-size":"medium","marker-symbol":"warehouse","title":"YYZ"}},{"type":"Feature","id":"6290242","geometry":{"type":"Point","coordinates":[144.84332275390625,-37.6733283996582]},"properties":{"countryCode":"AU","marker-color":"#383E42","marker-size":"medium","marker-symbol":"warehouse","title":"MEL"}},{"type":"Feature","id":"2208268","geometry":{"type":"Point","coordinates":[151.17721557617188,-33.946109771728516]},"properties":{"countryCode":"AU","marker-color":"#383E42","marker-size":"medium","marker-symbol":"warehouse","title":"SYD"}},{"type":"Feature","id":"1880725","geometry":{"type":"Point","coordinates":[103.99005889892578,1.355139970779419]},"properties":{"countryCode":"SG","marker-color":"#383E42","marker-size":"medium","marker-symbol":"warehouse","title":"SIN"}},{"type":"Feature","id":"4164181","geometry":{"type":"Point","coordinates":[-80.29004669189453,25.79343032836914]},"properties":{"countryCode":"US","marker-color":"#383E42","marker-size":"medium","marker-symbol":"warehouse","title":"MIA"}},{"type":"Feature","id":"5392196","geometry":{"type":"Point","coordinates":[-121.92884826660156,37.36188888549805]},"properties":{"countryCode":"US","marker-color":"#383E42","marker-size":"medium","marker-symbol":"warehouse","title":"SJC"}},{"type":"Feature","id":"6299801","geometry":{"type":"Point","coordinates":[-90.52747344970703,14.583270072937012]},"properties":{"countryCode":"GT","marker-color":"#383E42","marker-size":"medium","marker-symbol":"warehouse","title":"GUA"}},{"type":"Feature","id":"6299309","geometry":{"type":"Point","coordinates":[23.406169891357422,42.6951904296875]},"properties":{"countryCode":"BG","marker-color":"#383E42","marker-size":"medium","marker-symbol":"warehouse","title":"SOF"}},{"type":"Feature","id":"3392026","geometry":{"type":"Point","coordinates":[-38.53255844116211,-3.776279926300049]},"properties":{"countryCode":"BR","marker-color":"#383E42","marker-size":"medium","marker-symbol":"warehouse","title":"FOR"}},{"type":"Feature","id":"4199556","geometry":{"type":"Point","coordinates":[-84.42265319824219,33.6409912109375]},"properties":{"countryCode":"US","marker-color":"#383E42","marker-size":"medium","marker-symbol":"warehouse","title":"ATL"}},{"type":"Feature","id":"5037658","geometry":{"type":"Point","coordinates":[-93.2083511352539,44.882171630859375]},"properties":{"countryCode":"US","marker-color":"#383E42","marker-size":"medium","marker-symbol":"warehouse","title":"MSP"}},{"type":"Feature","id":"6290293","geometry":{"type":"Point","coordinates":[8.5560302734375,50.04059982299805]},"properties":{"countryCode":"DE","marker-color":"#383E42","marker-size":"medium","marker-symbol":"warehouse","title":"FRA"}},{"type":"Feature","id":"2647216","geometry":{"type":"Point","coordinates":[-0.45649001002311707,51.47114944458008]},"properties":{"countryCode":"GB","marker-color":"#383E42","marker-size":"medium","marker-symbol":"warehouse","title":"LHR"}},{"type":"Feature","id":"286348","geometry":{"type":"Point","coordinates":[58.286048889160156,23.600900650024414]},"properties":{"countryCode":"OM","marker-color":"#383E42","marker-size":"medium","marker-symbol":"warehouse","title":"MCT"}},{"type":"Feature","id":"6300133","geometry":{"type":"Point","coordinates":[51.61042022705078,25.26910972595215]},"properties":{"countryCode":"QA","marker-color":"#383E42","marker-size":"medium","marker-symbol":"warehouse","title":"DOH"}},{"type":"Feature","id":"6301871","geometry":{"type":"Point","coordinates":[90.39778137207031,23.84333038330078]},"properties":{"countryCode":"BD","marker-color":"#383E42","marker-size":"medium","marker-symbol":"warehouse","title":"DAC"}},{"type":"Feature","id":"6232134","geometry":{"type":"Point","coordinates":[174.7916717529297,-37.008060455322266]},"properties":{"countryCode":"NZ","marker-color":"#383E42","marker-size":"medium","marker-symbol":"warehouse","title":"AKL"}},{"type":"Feature","id":"1701661","geometry":{"type":"Point","coordinates":[121.00444793701172,14.504989624023438]},"properties":{"countryCode":"PH","marker-color":"#383E42","marker-size":"medium","marker-symbol":"warehouse","title":"MNL"}},{"type":"Feature","id":"2079187","geometry":{"type":"Point","coordinates":[115.9669418334961,-31.94028091430664]},"properties":{"countryCode":"AU","marker-color":"#383E42","marker-size":"medium","marker-symbol":"warehouse","title":"PER"}},{"type":"Feature","id":"6300307","geometry":{"type":"Point","coordinates":[140.38638305664062,35.76472091674805]},"properties":{"countryCode":"JP","marker-color":"#383E42","marker-size":"medium","marker-symbol":"warehouse","title":"NRT"}},{"type":"Feature","id":"5780035","geometry":{"type":"Point","coordinates":[-111.72132110595703,40.215511322021484]},"properties":{"countryCode":"US","marker-color":"#383E42","marker-size":"medium","marker-symbol":"warehouse","title":"PVU"}},{"type":"Feature","id":"4684943","geometry":{"type":"Point","coordinates":[-97.03720092773438,32.89595031738281]},"properties":{"countryCode":"US","marker-color":"#383E42","marker-size":"medium","marker-symbol":"warehouse","title":"DFW"}},{"type":"Feature","id":"3937555","geometry":{"type":"Point","coordinates":[-77.11431884765625,-12.021889686584473]},"properties":{"countryCode":"PE","marker-color":"#383E42","marker-size":"medium","marker-symbol":"warehouse","title":"LIM"}},{"type":"Feature","id":"5123698","geometry":{"type":"Point","coordinates":[-73.87268829345703,40.77606964111328]},"properties":{"countryCode":"US","marker-color":"#383E42","marker-size":"medium","marker-symbol":"warehouse","title":"LGA"}},{"type":"Feature","id":"6301032","geometry":{"type":"Point","coordinates":[72.867919921875,19.08868980407715]},"properties":{"countryCode":"IN","marker-color":"#383E42","marker-size":"medium","marker-symbol":"warehouse","title":"BOM"}},{"type":"Feature","id":"2079721","geometry":{"type":"Point","coordinates":[130.8766632080078,-12.414719581604004]},"properties":{"countryCode":"AU","marker-color":"#383E42","marker-size":"medium","marker-symbol":"warehouse","title":"DRW"}},{"type":"Feature","id":"6301292","geometry":{"type":"Point","coordinates":[153.11749267578125,-27.384170532226562]},"properties":{"countryCode":"AU","marker-color":"#383E42","marker-size":"medium","marker-symbol":"warehouse","title":"BNE"}},{"type":"Feature","id":"6299869","geometry":{"type":"Point","coordinates":[-100.18566131591797,20.617290496826172]},"properties":{"countryCode":"MX","marker-color":"#383E42","marker-size":"medium","marker-symbol":"warehouse","title":"QRO"}},{"type":"Feature","id":"6297307","geometry":{"type":"Point","coordinates":[36.925048828125,-1.330299973487854]},"properties":{"countryCode":"KE","marker-color":"#383E42","marker-size":"medium","marker-symbol":"warehouse","title":"NBO"}},{"type":"Feature","id":"6299345","geometry":{"type":"Point","coordinates":[-3.5694799423217773,40.4918098449707]},"properties":{"countryCode":"ES","marker-color":"#383E42","marker-size":"medium","marker-symbol":"warehouse","title":"MAD"}},{"type":"Feature","id":"6300913","geometry":{"type":"Point","coordinates":[77.04051208496094,43.35206985473633]},"properties":{"countryCode":"KZ","marker-color":"#383E42","marker-size":"medium","marker-symbol":"warehouse","title":"ALA"}},{"type":"Feature","id":"6301069","geometry":{"type":"Point","coordinates":[88.44671630859375,22.654739379882812]},"properties":{"countryCode":"IN","marker-color":"#383E42","marker-size":"medium","marker-symbol":"warehouse","title":"CCU"}},{"type":"Feature","id":"5368418","geometry":{"type":"Point","coordinates":[-118.40897369384766,33.942508697509766]},"properties":{"countryCode":"US","marker-color":"#383E42","marker-size":"medium","marker-symbol":"warehouse","title":"LAX"}},{"type":"Feature","id":"3899261","geometry":{"type":"Point","coordinates":[-70.78579711914062,-33.39297103881836]},"properties":{"countryCode":"CL","marker-color":"#383E42","marker-size":"medium","marker-symbol":"warehouse","title":"SCL"}},{"type":"Feature","id":"6301127","geometry":{"type":"Point","coordinates":[80.16577911376953,12.988329887390137]},"properties":{"countryCode":"IN","marker-color":"#383E42","marker-size":"medium","marker-symbol":"warehouse","title":"MAA"}},{"type":"Feature","id":"6301284","geometry":{"type":"Point","coordinates":[112.78508758544922,-7.380040168762207]},"properties":{"countryCode":"ID","marker-color":"#383E42","marker-size":"medium","marker-symbol":"warehouse","title":"SUB"}},{"type":"Feature","id":"6296786","geometry":{"type":"Point","coordinates":[20.967119216918945,52.165748596191406]},"properties":{"countryCode":"PL","marker-color":"#383E42","marker-size":"medium","marker-symbol":"warehouse","title":"WAW"}},{"type":"Feature","id":"6296296","geometry":{"type":"Point","coordinates":[-73.75019073486328,45.4610595703125]},"properties":{"countryCode":"CA","marker-color":"#383E42","marker-size":"medium","marker-symbol":"warehouse","title":"YUL"}},{"type":"Feature","id":"2332458","geometry":{"type":"Point","coordinates":[3.321160078048706,6.5773701667785645]},"properties":{"countryCode":"NG","marker-color":"#383E42","marker-size":"medium","marker-symbol":"warehouse","title":"LOS"}}]}